{"type": "FeatureCollection", "features": [{"type": "Feature", "properties": {"norad_id": 22675, "name": "COSMOS 2251", "group": "cosmos-2251-debris", "lat": 42.3988207834626, "lon": 131.77489667400326, "alt_km": 775.4736588330015, "timestamp": "2025-12-06T16:45:43.113924+00:00", "meta": {"OBJECT_NAME": "COSMOS 2251", "OBJECT_ID": "1993-036A", "EPOCH": "2025-12-06T06:04:59.816640", "MEAN_MOTION": 14.33201769, "ECCENTRICITY": 0.0023757, "INCLINATION": 74.0393, "RA_OF_ASC_NODE": 327.7356, "ARG_OF_PERICENTER": 52.0498, "MEAN_ANOMALY": 308.2795, "EPHEMERIS_TYPE": 0, "CLASSIFICATION_TYPE": "U", "NORAD_CAT_ID": 22675, "ELEMENT_SET_NO": 999, "REV_AT_EPOCH": 69680, "BSTAR": 9.9339037e-05, "MEAN_MOTION_DOT": 2.48e-06, "MEAN_MOTION_DDOT": 0}, "tle": {"line1": "1 22675U 93036A   25340.25347010  .00000248  00000+0  99339-4 0  9999", "line2": "2 22675  74.0393 327.7356 0023757  52.0498 308.2795 14.33201769696804"}}, "geometry": {"type": "Point", "coordinates": [131.77489667400326, 42.3988207834626]}}, {"type": "Feature", "properties": {"norad_id": 33757, "name": "COSMOS 2251 DEB", "group": "cosmos-2251-debris", "lat": -7.246013369289211, "lon": 156.72544388148629, "alt_km": 796.8226502230691, "timestamp": "2025-12-06T16:45:43.113948+00:00", "meta": {"OBJECT_NAME": "COSMOS 2251 DEB", "OBJECT_ID": "1993-036E", "EPOCH": "2025-12-06T07:47:54.154176", "MEAN_MOTION": 14.32578508, "ECCENTRICITY": 0.00150049, "INCLINATION": 74.0366, "RA_OF_ASC_NODE": 335.3213, "ARG_OF_PERICENTER": 349.8125, "MEAN_ANOMALY": 72.2779, "EPHEMERIS_TYPE": 0, "CLASSIFICATION_TYPE": "U", "NORAD_CAT_ID": 33757, "ELEMENT_SET_NO": 999, "REV_AT_EPOCH": 87904, "BSTAR": 8.5345516e-05, "MEAN_MOTION_DOT": 2.06e-06, "MEAN_MOTION_DDOT": 0}, "tle": {"line1": "1 33757U 93036E   25340.32493234  .00000206  00000+0  85346-4 0  9997", "line2": "2 33757  74.0366 335.3213 0015004 349.8125  72.2779 14.32578508879040"}}, "geometry": {"type": "Point", "coordinates": [156.72544388148629, -7.246013369289211]}}, {"type": "Feature", "properties": {"norad_id": 33758, "name": "COSMOS 2251 DEB", "group": "cosmos-2251-debris", "lat": 71.45118215292746, "lon": -74.99347776537213, "alt_km": 723.8100076884593, "timestamp": "2025-12-06T16:45:43.113962+00:00", "meta": {"OBJECT_NAME": "COSMOS 2251 DEB", "OBJECT_ID": "1993-036F", "EPOCH": "2025-12-06T03:52:07.565952", "MEAN_MOTION": 14.5153136, "ECCENTRICITY": 0.00175366, "INCLINATION": 74.0284, "RA_OF_ASC_NODE": 227.4199, "ARG_OF_PERICENTER": 294.6943, "MEAN_ANOMALY": 219.5767, "EPHEMERIS_TYPE": 0, "CLASSIFICATION_TYPE": "U", "NORAD_CAT_ID": 33758, "ELEMENT_SET_NO": 999, "REV_AT_EPOCH": 88209, "BSTAR": 0.0014614251, "MEAN_MOTION_DOT": 5.834e-05, "MEAN_MOTION_DDOT": 0}, "tle": {"line1": "1 33758U 93036F   25340.16119868  .00005834  00000+0  14614-2 0  9998", "line2": "2 33758  74.0284 227.4199 0017536 294.6943 219.5767 14.51531360882099"}}, "geometry": {"type": "Point", "coordinates": [-74.99347776537213, 71.45118215292746]}}, {"type": "Feature", "properties": {"norad_id": 33760, "name": "COSMOS 2251 DEB", "group": "cosmos-2251-debris", "lat": 7.106696069200297, "lon": -65.41015242413447, "alt_km": 761.788063174974, "timestamp": "2025-12-06T16:45:43.113974+00:00", "meta": {"OBJECT_NAME": "COSMOS 2251 DEB", "OBJECT_ID": "1993-036H", "EPOCH": "2025-12-06T07:01:55.282080", "MEAN_MOTION": 14.35665905, "ECCENTRICITY": 0.00196031, "INCLINATION": 74.0318, "RA_OF_ASC_NODE": 293.2878, "ARG_OF_PERICENTER": 33.4392, "MEAN_ANOMALY": 39.6601, "EPHEMERIS_TYPE": 0, "CLASSIFICATION_TYPE": "U", "NORAD_CAT_ID": 33760, "ELEMENT_SET_NO": 999, "REV_AT_EPOCH": 88032, "BSTAR": 0.00022537137, "MEAN_MOTION_DOT": 6.26e-06, "MEAN_MOTION_DDOT": 0}, "tle": {"line1": "1 33760U 93036H   25340.29300095  .00000626  00000+0  22537-3 0  9997", "line2": "2 33760  74.0318 293.2878 0019603  33.4392  39.6601 14.35665905880326"}}, "geometry": {"type": "Point", "coordinates": [-65.41015242413447, 7.106696069200297]}}, {"type": "Feature", "properties": {"norad_id": 33761, "name": "COSMOS 2251 DEB", "group": "cosmos-2251-debris", "lat": 31.119646282499886, "lon": 73.4214380243153, "alt_km": 763.6613102551964, "timestamp": "2025-12-06T16:45:43.113986+00:00", "meta": {"OBJECT_NAME": "COSMOS 2251 DEB", "OBJECT_ID": "1993-036J", "EPOCH": "2025-12-04T21:04:01.127712", "MEAN_MOTION": 14.42504735, "ECCENTRICITY": 0.0022795, "INCLINATION": 74.037, "RA_OF_ASC_NODE": 266.7483, "ARG_OF_PERICENTER": 348.175, "MEAN_ANOMALY": 68.3837, "EPHEMERIS_TYPE": 0, "CLASSIFICATION_TYPE": "U", "NORAD_CAT_ID": 33761, "ELEMENT_SET_NO": 999, "REV_AT_EPOCH": 88121, "BSTAR": 0.0010906, "MEAN_MOTION_DOT": 3.601e-05, "MEAN_MOTION_DDOT": 0}, "tle": {"line1": "1 33761U 93036J   25338.87779083  .00003601  00000+0  10906-2 0  9998", "line2": "2 33761  74.0370 266.7483 0022795 348.1750  68.3837 14.42504735881212"}}, "geometry": {"type": "Point", "coordinates": [73.4214380243153, 31.119646282499886]}}, {"type": "Feature", "properties": {"norad_id": 33762, "name": "COSMOS 2251 DEB", "group": "cosmos-2251-debris", "lat": -10.605955010365976, "lon": -41.99885310878898, "alt_km": 774.7789459352134, "timestamp": "2025-12-06T16:45:43.114001+00:00", "meta": {"OBJECT_NAME": "COSMOS 2251 DEB", "OBJECT_ID": "1993-036K", "EPOCH": "2025-12-06T07:03:32.178816", "MEAN_MOTION": 14.33660666, "ECCENTRICITY": 0.00147424, "INCLINATION": 74.0413, "RA_OF_ASC_NODE": 321.8115, "ARG_OF_PERICENTER": 25.1757, "MEAN_ANOMALY": 38.2081, "EPHEMERIS_TYPE": 0, "CLASSIFICATION_TYPE": "U", "NORAD_CAT_ID": 33762, "ELEMENT_SET_NO": 999, "REV_AT_EPOCH": 87955, "BSTAR": 9.8811126e-05, "MEAN_MOTION_DOT": 2.48e-06, "MEAN_MOTION_DDOT": 0}, "tle": {"line1": "1 33762U 93036K   25340.29412244  .00000248  00000+0  98811-4 0  9998", "line2": "2 33762  74.0413 321.8115 0014742  25.1757  38.2081 14.33660666879555"}}, "geometry": {"type": "Point", "coordinates": [-41.99885310878898, -10.605955010365976]}}, {"type": "Feature", "properties": {"norad_id": 33764, "name": "COSMOS 2251 DEB", "group": "cosmos-2251-debris", "lat": 2.153626390059409, "lon": -75.57056595327943, "alt_km": 768.8850048930999, "timestamp": "2025-12-06T16:45:43.114013+00:00", "meta": {"OBJECT_NAME": "COSMOS 2251 DEB", "OBJECT_ID": "1993-036M", "EPOCH": "2025-12-06T07:27:00.060768", "MEAN_MOTION": 14.39488544, "ECCENTRICITY": 0.0024194, "INCLINATION": 74.0344, "RA_OF_ASC_NODE": 284.5287, "ARG_OF_PERICENTER": 251.387, "MEAN_ANOMALY": 260.8515, "EPHEMERIS_TYPE": 0, "CLASSIFICATION_TYPE": "U", "NORAD_CAT_ID": 33764, "ELEMENT_SET_NO": 999, "REV_AT_EPOCH": 88064, "BSTAR": 0.000757603, "MEAN_MOTION_DOT": 2.344e-05, "MEAN_MOTION_DDOT": 0}, "tle": {"line1": "1 33764U 93036M   25340.31041737  .00002344  00000+0  75760-3 0  9994", "line2": "2 33764  74.0344 284.5287 0024194 251.3870 260.8515 14.39488544880642"}}, "geometry": {"type": "Point", "coordinates": [-75.57056595327943, 2.153626390059409]}}, {"type": "Feature", "properties": {"norad_id": 33765, "name": "COSMOS 2251 DEB", "group": "cosmos-2251-debris", "lat": 67.97613623334236, "lon": -39.5540965589301, "alt_km": 576.8794449841516, "timestamp": "2025-12-06T16:45:43.114024+00:00", "meta": {"OBJECT_NAME": "COSMOS 2251 DEB", "OBJECT_ID": "1993-036N", "EPOCH": "2025-12-06T07:31:16.349088", "MEAN_MOTION": 15.09407844, "ECCENTRICITY": 0.00669622, "INCLINATION": 74.0096, "RA_OF_ASC_NODE": 186.3873, "ARG_OF_PERICENTER": 279.6256, "MEAN_ANOMALY": 254.4231, "EPHEMERIS_TYPE": 0, "CLASSIFICATION_TYPE": "U", "NORAD_CAT_ID": 33765, "ELEMENT_SET_NO": 999, "REV_AT_EPOCH": 89521, "BSTAR": 0.0035450599, "MEAN_MOTION_DOT": 0.00060196, "MEAN_MOTION_DDOT": 0}, "tle": {"line1": "1 33765U 93036N   25340.31338367  .00060196  00000+0  35451-2 0  9994", "line2": "2 33765  74.0096 186.3873 0066962 279.6256 254.4231 15.09407844895212"}}, "geometry": {"type": "Point", "coordinates": [-39.5540965589301, 67.97613623334236]}}, {"type": "Feature", "properties": {"norad_id": 33766, "name": "COSMOS 2251 DEB", "group": "cosmos-2251-debris", "lat": 34.84848940795339, "lon": -45.43250183200015, "alt_km": 813.1485178670955, "timestamp": "2025-12-06T16:45:43.114035+00:00", "meta": {"OBJECT_NAME": "COSMOS 2251 DEB", "OBJECT_ID": "1993-036P", "EPOCH": "2025-12-06T06:03:25.796160", "MEAN_MOTION": 14.34905979, "ECCENTRICITY": 0.00638398, "INCLINATION": 74.185, "RA_OF_ASC_NODE": 146.7592, "ARG_OF_PERICENTER": 351.9495, "MEAN_ANOMALY": 8.0627, "EPHEMERIS_TYPE": 0, "CLASSIFICATION_TYPE": "U", "NORAD_CAT_ID": 33766, "ELEMENT_SET_NO": 999, "REV_AT_EPOCH": 87652, "BSTAR": 0.00094262462, "MEAN_MOTION_DOT": 2.718e-05, "MEAN_MOTION_DDOT": 0}, "tle": {"line1": "1 33766U 93036P   25340.25238190  .00002718  00000+0  94262-3 0  9993", "line2": "2 33766  74.1850 146.7592 0063839 351.9495   8.0627 14.34905979876523"}}, "geometry": {"type": "Point", "coordinates": [-45.43250183200015, 34.84848940795339]}}, {"type": "Feature", "properties": {"norad_id": 33768, "name": "COSMOS 2251 DEB", "group": "cosmos-2251-debris", "lat": -66.02550304129976, "lon": -170.34510257166727, "alt_km": 1088.0482207896648, "timestamp": "2025-12-06T16:45:43.114046+00:00", "meta": {"OBJECT_NAME": "COSMOS 2251 DEB", "OBJECT_ID": "1993-036R", "EPOCH": "2025-12-05T23:31:52.175136", "MEAN_MOTION": 13.58446031, "ECCENTRICITY": 0.03659703, "INCLINATION": 74.0687, "RA_OF_ASC_NODE": 230.7754, "ARG_OF_PERICENTER": 30.0022, "MEAN_ANOMALY": 352.5709, "EPHEMERIS_TYPE": 0, "CLASSIFICATION_TYPE": "U", "NORAD_CAT_ID": 33768, "ELEMENT_SET_NO": 999, "REV_AT_EPOCH": 83204, "BSTAR": 0.00060156946, "MEAN_MOTION_DOT": 6.58e-06, "MEAN_MOTION_DDOT": 0}, "tle": {"line1": "1 33768U 93036R   25339.98046499  .00000658  00000+0  60157-3 0  9999", "line2": "2 33768  74.0687 230.7754 0365970  30.0022 352.5709 13.58446031832049"}}, "geometry": {"type": "Point", "coordinates": [-170.34510257166727, -66.02550304129976]}}]}